GLOBALSTAR M057         
1 25943U 99058A   25158.56616153 -.00000052  00000+0  37017-3 0  9996
2 25943  52.0007  15.5088 0002941  13.3607 346.7320 12.24820990165758
GLOBALSTAR M059         
1 25944U 99058B   25158.52180852 -.00000054  00000+0  39706-3 0  9994
2 25944  52.0005 233.3222 0000571 236.4389 227.2158 11.99978828572882
GLOBALSTAR M056         
1 25945U 99058C   25158.45613900 -.00000063  00000+0  28562-3 0  9990
2 25945  51.9952 235.7087 0001512 161.1608 212.0048 12.04780911161459
GLOBALSTAR M031         
1 25946U 99058D   25158.65490546 -.00000079  00000+0  11984-3 0  9999
2 25946  51.9947 128.0660 0001032 156.7412  14.3979 12.16035691163386
GLOBALSTAR M039         
1 25961U 99062A   25158.74251904 -.00000053  00000+0  28455-3 0  9997
2 25961  51.9855 297.4837 0002038 337.6389  22.4388 12.62327521179050
GLOBALSTAR M034         
1 25962U 99062B   25158.70577785 -.00000163  00000+0 -13112-2 0  9998
2 25962  51.9897  36.0326 0014724  25.1812  12.6339 11.79446062137254
GLOBALSTAR M029         
1 25963U 99062C   25158.62942659 -.00000079  00000+0  93590-4 0  9991
2 25963  51.9787 121.0729 0002451  91.4553  80.4282 11.99897640167973
GLOBALSTAR M061         
1 25964U 99062D   25158.42808847 -.00000078  00000+0  41752-4 0  9992
2 25964  51.9777 220.6620 0005817 302.5307  70.3517 11.76776335120038
